[{"OBJECT_NAME":"STARLINK-31047","OBJECT_ID":"2024-011U","EPOCH":"2026-03-09T01:01:16.690656","MEAN_MOTION":15.30194233,"ECCENTRICITY":8.666e-5,"INCLINATION":53.1608,"RA_OF_ASC_NODE":1.1321,"ARG_OF_PERICENTER":94.8099,"MEAN_ANOMALY":265.3001,"EPHEMERIS_TYPE":0,"CLASSIFICATION_TYPE":"U","NORAD_CAT_ID":58783,"ELEMENT_SET_NO":999,"REV_AT_EPOCH":12038,"BSTAR":2.9031072e-5,"MEAN_MOTION_DOT":5.01e-6,"MEAN_MOTION_DDOT":0},{"OBJECT_NAME":"PHISAT 2","OBJECT_ID":"2024-149C","EPOCH":"2026-03-09T18:55:12.732384","MEAN_MOTION":15.29548632,"ECCENTRICITY":0.00011753,"INCLINATION":97.3806,"RA_OF_ASC_NODE":148.6498,"ARG_OF_PERICENTER":168.623,"MEAN_ANOMALY":191.5037,"EPHEMERIS_TYPE":0,"CLASSIFICATION_TYPE":"U","NORAD_CAT_ID":60470,"ELEMENT_SET_NO":999,"REV_AT_EPOCH":8679,"BSTAR":0.00031420974,"MEAN_MOTION_DOT":8.925e-5,"MEAN_MOTION_DDOT":0}]
